{
  "type": "FeatureCollection",
  "features": [
    {
      "type": "Feature",
      "properties": {
        "norad_id": 38474,
        "name": "IRIDIUM 33 DEB",
        "group": "iridium-33-debris",
        "lat": 33.67160584994797,
        "lon": 14.178188805522893,
        "alt_km": 713.2595427057577,
        "timestamp": "2025-12-08T21:31:05.052472+00:00",
        "meta_object_name": "IRIDIUM 33 DEB",
        "meta_object_id": "1997-051AAB",
        "meta_epoch": "2025-12-08T08:07:09.463872",
        "meta_mean_motion": 14.50663948,
        "meta_eccentricity": 0.00281226,
        "meta_inclination": 86.3436,
        "meta_ra_of_asc_node": 11.9798,
        "meta_arg_of_pericenter": 101.673,
        "meta_mean_anomaly": 258.7634,
        "meta_ephemeris_type": 0,
        "meta_classification_type": "U",
        "meta_norad_cat_id": 38474,
        "meta_element_set_no": 999,
        "meta_rev_at_epoch": 65254,
        "meta_bstar": 0.0008115799,
        "meta_mean_motion_dot": 3.222e-05,
        "meta_mean_motion_ddot": 0,
        "tle_line1": "1 38474U 97051AAB 25342.33830398  .00003222  00000+0  81158-3 0  9995",
        "tle_line2": "2 38474  86.3436  11.9798 0028122 101.6730 258.7634 14.50663948652549"
      },
      "geometry": {
        "type": "Point",
        "coordinates": [
          14.178188805522893,
          33.67160584994797
        ]
      }
    },
    {
      "type": "Feature",
      "properties": {
        "norad_id": 39777,
        "name": "IRIDIUM 33 DEB",
        "group": "iridium-33-debris",
        "lat": 2.2100496230520603,
        "lon": 177.06446551526057,
        "alt_km": 748.4004522819869,
        "timestamp": "2025-12-08T21:31:05.052486+00:00",
        "meta_object_name": "IRIDIUM 33 DEB",
        "meta_object_id": "1997-051AAJ",
        "meta_epoch": "2025-12-08T06:39:56.822400",
        "meta_mean_motion": 14.56263491,
        "meta_eccentricity": 0.00598353,
        "meta_inclination": 85.962,
        "meta_ra_of_asc_node": 177.2086,
        "meta_arg_of_pericenter": 201.8798,
        "meta_mean_anomaly": 157.9853,
        "meta_ephemeris_type": 0,
        "meta_classification_type": "U",
        "meta_norad_cat_id": 39777,
        "meta_element_set_no": 999,
        "meta_rev_at_epoch": 60120,
        "meta_bstar": 0.0030950402,
        "meta_mean_motion_dot": 0.00014065,
        "meta_mean_motion_ddot": 0,
        "tle_line1": "1 39777U 97051AAJ 25342.27774100  .00014065  00000+0  30950-2 0  9993",
        "tle_line2": "2 39777  85.9620 177.2086 0059835 201.8798 157.9853 14.56263491601209"
      },
      "geometry": {
        "type": "Point",
        "coordinates": [
          177.06446551526057,
          2.2100496230520603
        ]
      }
    },
    {
      "type": "Feature",
      "properties": {
        "norad_id": 39778,
        "name": "IRIDIUM 33 DEB",
        "group": "iridium-33-debris",
        "lat": -46.33727470296101,
        "lon": -131.30029728896363,
        "alt_km": 724.7071269874514,
        "timestamp": "2025-12-08T21:31:05.052499+00:00",
        "meta_object_name": "IRIDIUM 33 DEB",
        "meta_object_id": "1997-051AAK",
        "meta_epoch": "2025-12-08T10:34:19.219872",
        "meta_mean_motion": 14.54215447,
        "meta_eccentricity": 0.00084331,
        "meta_inclination": 86.3776,
        "meta_ra_of_asc_node": 45.0917,
        "meta_arg_of_pericenter": 54.5807,
        "meta_mean_anomaly": 305.6186,
        "meta_ephemeris_type": 0,
        "meta_classification_type": "U",
        "meta_norad_cat_id": 39778,
        "meta_element_set_no": 999,
        "meta_rev_at_epoch": 60630,
        "meta_bstar": 0.0013246298,
        "meta_mean_motion_dot": 5.631e-05,
        "meta_mean_motion_ddot": 0,
        "tle_line1": "1 39778U 97051AAK 25342.44050023  .00005631  00000+0  13246-2 0  9992",
        "tle_line2": "2 39778  86.3776  45.0917 0008433  54.5807 305.6186 14.54215447606307"
      },
      "geometry": {
        "type": "Point",
        "coordinates": [
          -131.30029728896363,
          -46.33727470296101
        ]
      }
    },
    {
      "type": "Feature",
      "properties": {
        "norad_id": 39781,
        "name": "IRIDIUM 33 DEB",
        "group": "iridium-33-debris",
        "lat": 85.96143736626266,
        "lon": -36.365272060419386,
        "alt_km": 939.1890025493449,
        "timestamp": "2025-12-08T21:31:05.052509+00:00",
        "meta_object_name": "IRIDIUM 33 DEB",
        "meta_object_id": "1997-051AAN",
        "meta_epoch": "2025-12-08T00:53:08.261952",
        "meta_mean_motion": 14.20419658,
        "meta_eccentricity": 0.01788839,
        "meta_inclination": 86.3691,
        "meta_ra_of_asc_node": 259.9169,
        "meta_arg_of_pericenter": 288.2181,
        "meta_mean_anomaly": 86.0915,
        "meta_ephemeris_type": 0,
        "meta_classification_type": "U",
        "meta_norad_cat_id": 39781,
        "meta_element_set_no": 999,
        "meta_rev_at_epoch": 8040,
        "meta_bstar": 0.0072666805,
        "meta_mean_motion_dot": 0.00018344,
        "meta_mean_motion_ddot": 0,
        "tle_line1": "1 39781U 97051AAN 25342.03690118  .00018344  00000+0  72667-2 0  9993",
        "tle_line2": "2 39781  86.3691 259.9169 0178883 288.2181  86.0915 14.20419658 80400"
      },
      "geometry": {
        "type": "Point",
        "coordinates": [
          -36.365272060419386,
          85.96143736626266
        ]
      }
    },
    {
      "type": "Feature",
      "properties": {
        "norad_id": 39783,
        "name": "IRIDIUM 33 DEB",
        "group": "iridium-33-debris",
        "lat": -70.56187216666117,
        "lon": -113.77378555898245,
        "alt_km": 485.43362809441896,
        "timestamp": "2025-12-08T21:31:05.052520+00:00",
        "meta_object_name": "IRIDIUM 33 DEB",
        "meta_object_id": "1997-051AAQ",
        "meta_epoch": "2025-11-16T15:05:40.850592",
        "meta_mean_motion": 15.19327111,
        "meta_eccentricity": 0.00057535,
        "meta_inclination": 86.1306,
        "meta_ra_of_asc_node": 268.8004,
        "meta_arg_of_pericenter": 179.9151,
        "meta_mean_anomaly": 1.8316,
        "meta_ephemeris_type": 0,
        "meta_classification_type": "U",
        "meta_norad_cat_id": 39783,
        "meta_element_set_no": 999,
        "meta_rev_at_epoch": 60401,
        "meta_bstar": 0.010398125,
        "meta_mean_motion_dot": 0.00226179,
        "meta_mean_motion_ddot": 0,
        "tle_line1": "1 39783U 97051AAQ 25320.62894503  .00226179  00000+0  10398-1 0  9999",
        "tle_line2": "2 39783  86.1306 268.8004 0005753 179.9151   1.8316 15.19327111604018"
      },
      "geometry": {
        "type": "Point",
        "coordinates": [
          -113.77378555898245,
          -70.56187216666117
        ]
      }
    },
    {
      "type": "Feature",
      "properties": {
        "norad_id": 40996,
        "name": "IRIDIUM 33 DEB",
        "group": "iridium-33-debris",
        "lat": -66.27931088157271,
        "lon": -5.147085488534365,
        "alt_km": 593.4349558157401,
        "timestamp": "2025-12-08T21:31:05.052530+00:00",
        "meta_object_name": "IRIDIUM 33 DEB",
        "meta_object_id": "1997-051ABJ",
        "meta_epoch": "2025-12-08T12:51:56.950848",
        "meta_mean_motion": 14.95855822,
        "meta_eccentricity": 0.001198,
        "meta_inclination": 86.351,
        "meta_ra_of_asc_node": 3.3722,
        "meta_arg_of_pericenter": 75.5398,
        "meta_mean_anomaly": 77.9581,
        "meta_ephemeris_type": 0,
        "meta_classification_type": "U",
        "meta_norad_cat_id": 40996,
        "meta_element_set_no": 999,
        "meta_rev_at_epoch": 62425,
        "meta_bstar": 0.0030689207,
        "meta_mean_motion_dot": 0.00034483,
        "meta_mean_motion_ddot": 0,
        "tle_line1": "1 40996U 97051ABJ 25342.53607582  .00034483  00000+0  30689-2 0  9991",
        "tle_line2": "2 40996  86.3510   3.3722 0011980  75.5398  77.9581 14.95855822624251"
      },
      "geometry": {
        "type": "Point",
        "coordinates": [
          -5.147085488534365,
          -66.27931088157271
        ]
      }
    },
    {
      "type": "Feature",
      "properties": {
        "norad_id": 40998,
        "name": "IRIDIUM 33 DEB",
        "group": "iridium-33-debris",
        "lat": 12.161223564828358,
        "lon": 56.079266784156935,
        "alt_km": 741.7601854010345,
        "timestamp": "2025-12-08T21:31:05.052540+00:00",
        "meta_object_name": "IRIDIUM 33 DEB",
        "meta_object_id": "1997-051ABL",
        "meta_epoch": "2025-12-03T12:06:12.154176",
        "meta_mean_motion": 14.45043538,
        "meta_eccentricity": 0.00095708,
        "meta_inclination": 86.3836,
        "meta_ra_of_asc_node": 57.6004,
        "meta_arg_of_pericenter": 108.6038,
        "meta_mean_anomaly": 309.9308,
        "meta_ephemeris_type": 0,
        "meta_classification_type": "U",
        "meta_norad_cat_id": 40998,
        "meta_element_set_no": 999,
        "meta_rev_at_epoch": 6548,
        "meta_bstar": 0.00081638604,
        "meta_mean_motion_dot": 2.87e-05,
        "meta_mean_motion_ddot": 0,
        "tle_line1": "1 40998U 97051ABL 25337.50430734  .00002870  00000+0  81639-3 0  9994",
        "tle_line2": "2 40998  86.3836  57.6004 0009570 108.6038 309.9308 14.45043538 65487"
      },
      "geometry": {
        "type": "Point",
        "coordinates": [
          56.079266784156935,
          12.161223564828358
        ]
      }
    }
  ]
}